0 SL-12 R/B(2)
1 21135U 91014D   13280.68229802 -.00000126  00000-0  10000-3 0  3132
2 21135 014.0774 018.7139 0026152 021.9924 338.1229 01.03431337 85432
0 SL-12 R/B(2)
1 21135U 91014D   13287.44981822 -.00000077  00000-0  10000-3 0  3157
2 21135 014.0835 018.6335 0026162 022.2228 337.8812 01.03430526 85500
0 SL-12 R/B(2)
1 21135U 91014D   13290.35013936 -.00000143  00000-0  10000-3 0  3168
2 21135 014.0860 018.5992 0026293 022.4975 337.5936 01.03431798 85531
0 SL-12 R/B(2)
1 21135U 91014D   13294.21723722 -.00000167  00000-0  10000-3 0  3175
2 21135 014.0898 018.5532 0026268 022.8085 337.2835 01.03432129 85578
